STARLINK-36403          
1 67563U 26016C   26043.11719070  .00180614  00000+0  92126-3 0  9995
2 67563  97.2829 102.2810 0002073 102.0447 258.1054 15.80886875  2777
STARLINK-36593          
1 67564U 26016D   26043.11596828  .00140135  00000+0  71909-3 0  9990
2 67564  97.2830 102.2822 0001822  95.9972 264.1504 15.80862765  2776
STARLINK-35725          
1 67565U 26016E   26043.11504685  .00201884  00000+0  10266-2 0  9998
2 67565  97.2833 102.2828 0001302 108.2165 251.9245 15.80898257  2772
STARLINK-36394          
1 67566U 26016F   26043.16670139  .00021831  00000+0  14691-3 0  9991
2 67566  97.2832 102.3359 0001701  60.1533 235.9276 15.75181347  4047
STARLINK-36352          
1 67567U 26016G   26043.17560992 -.00294249  00000+0 -15984-2 0  9990
2 67567  97.2792 102.3472 0003127 150.7496 209.3947 15.80658548  2784
STARLINK-36435          
1 67568U 26016H   26043.11004605  .00253899  00000+0  12807-2 0  9994
2 67568  97.2783 102.2848 0004254 127.8842 232.2811 15.80934599  2770
STARLINK-36575          
1 67569U 26016J   26043.10884173  .00184116  00000+0  93879-3 0  9994
2 67569  97.2841 102.2915 0000872  67.7144 292.4217 15.80886349  2777
STARLINK-36562          
1 67570U 26016K   26043.17123343  .00154455  00000+0  79196-3 0  9997
2 67570  97.2841 102.3589 0001615  71.9033 288.2411 15.80841886  2784
STARLINK-36578          
1 67571U 26016L   26043.16670139  .00008801  00000+0  59839-4 0  9993
2 67571  97.2840 102.3338 0001328  95.3189 188.7691 15.75179534  3928
STARLINK-36350          
1 67572U 26016M   26043.16670139 -.00047138  00000+0 -31677-3 0  9991
2 67572  97.2831 102.3493 0001184  70.0969 257.9844 15.75199905  3830
STARLINK-36588          
1 67573U 26016N   26043.16670139  .00019554  00000+0  13178-3 0  9997
2 67573  97.2863 102.3459 0001454  87.9110 228.1738 15.75169856  3994
STARLINK-36594          
1 67574U 26016P   26043.16652097  .00246428  00000+0  12465-2 0  9990
2 67574  97.2848 102.3637 0001158  61.2525 298.8859 15.80899967  2785
