CCSDS_OMM_VERS = 2.0
CREATION_DATE  = 
ORIGINATOR     = 

OBJECT_NAME    = STARLINK-36403
OBJECT_ID      = 2026-016C
CENTER_NAME    = EARTH
REF_FRAME      = TEME
TIME_SYSTEM    = UTC
MEAN_ELEMENT_THEORY = SGP/SGP4

EPOCH          = 2026-02-12T02:48:45.276480
MEAN_MOTION    = 15.80886875
ECCENTRICITY   = .0002073
INCLINATION    = 97.2829
RA_OF_ASC_NODE = 102.2810
ARG_OF_PERICENTER = 102.0447
MEAN_ANOMALY   = 258.1054

EPHEMERIS_TYPE = 0
CLASSIFICATION_TYPE = U
NORAD_CAT_ID   = 67563
ELEMENT_SET_NO = 999
REV_AT_EPOCH   = 277
BSTAR          = .92126E-3
MEAN_MOTION_DOT = .180614E-2
MEAN_MOTION_DDOT = 0

CCSDS_OMM_VERS = 2.0
CREATION_DATE  = 
ORIGINATOR     = 

OBJECT_NAME    = STARLINK-36593
OBJECT_ID      = 2026-016D
CENTER_NAME    = EARTH
REF_FRAME      = TEME
TIME_SYSTEM    = UTC
MEAN_ELEMENT_THEORY = SGP/SGP4

EPOCH          = 2026-02-12T02:46:59.659392
MEAN_MOTION    = 15.80862765
ECCENTRICITY   = .0001822
INCLINATION    = 97.2830
RA_OF_ASC_NODE = 102.2822
ARG_OF_PERICENTER = 95.9972
MEAN_ANOMALY   = 264.1504

EPHEMERIS_TYPE = 0
CLASSIFICATION_TYPE = U
NORAD_CAT_ID   = 67564
ELEMENT_SET_NO = 999
REV_AT_EPOCH   = 277
BSTAR          = .71909E-3
MEAN_MOTION_DOT = .140135E-2
MEAN_MOTION_DDOT = 0

CCSDS_OMM_VERS = 2.0
CREATION_DATE  = 
ORIGINATOR     = 

OBJECT_NAME    = STARLINK-35725
OBJECT_ID      = 2026-016E
CENTER_NAME    = EARTH
REF_FRAME      = TEME
TIME_SYSTEM    = UTC
MEAN_ELEMENT_THEORY = SGP/SGP4

EPOCH          = 2026-02-12T02:45:40.047840
MEAN_MOTION    = 15.80898257
ECCENTRICITY   = .0001302
INCLINATION    = 97.2833
RA_OF_ASC_NODE = 102.2828
ARG_OF_PERICENTER = 108.2165
MEAN_ANOMALY   = 251.9245

EPHEMERIS_TYPE = 0
CLASSIFICATION_TYPE = U
NORAD_CAT_ID   = 67565
ELEMENT_SET_NO = 999
REV_AT_EPOCH   = 277
BSTAR          = .10266E-2
MEAN_MOTION_DOT = .201884E-2
MEAN_MOTION_DDOT = 0

CCSDS_OMM_VERS = 2.0
CREATION_DATE  = 
ORIGINATOR     = 

OBJECT_NAME    = STARLINK-36394
OBJECT_ID      = 2026-016F
CENTER_NAME    = EARTH
REF_FRAME      = TEME
TIME_SYSTEM    = UTC
MEAN_ELEMENT_THEORY = SGP/SGP4

EPOCH          = 2026-02-12T04:00:03.000096
MEAN_MOTION    = 15.75181347
ECCENTRICITY   = .0001701
INCLINATION    = 97.2832
RA_OF_ASC_NODE = 102.3359
ARG_OF_PERICENTER = 60.1533
MEAN_ANOMALY   = 235.9276

EPHEMERIS_TYPE = 0
CLASSIFICATION_TYPE = U
NORAD_CAT_ID   = 67566
ELEMENT_SET_NO = 999
REV_AT_EPOCH   = 404
BSTAR          = .14691E-3
MEAN_MOTION_DOT = .21831E-3
MEAN_MOTION_DDOT = 0

CCSDS_OMM_VERS = 2.0
CREATION_DATE  = 
ORIGINATOR     = 

OBJECT_NAME    = STARLINK-36352
OBJECT_ID      = 2026-016G
CENTER_NAME    = EARTH
REF_FRAME      = TEME
TIME_SYSTEM    = UTC
MEAN_ELEMENT_THEORY = SGP/SGP4

EPOCH          = 2026-02-12T04:12:52.697088
MEAN_MOTION    = 15.80658548
ECCENTRICITY   = .0003127
INCLINATION    = 97.2792
RA_OF_ASC_NODE = 102.3472
ARG_OF_PERICENTER = 150.7496
MEAN_ANOMALY   = 209.3947

EPHEMERIS_TYPE = 0
CLASSIFICATION_TYPE = U
NORAD_CAT_ID   = 67567
ELEMENT_SET_NO = 999
REV_AT_EPOCH   = 278
BSTAR          = -.15984E-2
MEAN_MOTION_DOT = -.294249E-2
MEAN_MOTION_DDOT = 0

CCSDS_OMM_VERS = 2.0
CREATION_DATE  = 
ORIGINATOR     = 

OBJECT_NAME    = STARLINK-36435
OBJECT_ID      = 2026-016H
CENTER_NAME    = EARTH
REF_FRAME      = TEME
TIME_SYSTEM    = UTC
MEAN_ELEMENT_THEORY = SGP/SGP4

EPOCH          = 2026-02-12T02:38:27.978720
MEAN_MOTION    = 15.80934599
ECCENTRICITY   = .0004254
INCLINATION    = 97.2783
RA_OF_ASC_NODE = 102.2848
ARG_OF_PERICENTER = 127.8842
MEAN_ANOMALY   = 232.2811

EPHEMERIS_TYPE = 0
CLASSIFICATION_TYPE = U
NORAD_CAT_ID   = 67568
ELEMENT_SET_NO = 999
REV_AT_EPOCH   = 277
BSTAR          = .12807E-2
MEAN_MOTION_DOT = .253899E-2
MEAN_MOTION_DDOT = 0

CCSDS_OMM_VERS = 2.0
CREATION_DATE  = 
ORIGINATOR     = 

OBJECT_NAME    = STARLINK-36575
OBJECT_ID      = 2026-016J
CENTER_NAME    = EARTH
REF_FRAME      = TEME
TIME_SYSTEM    = UTC
MEAN_ELEMENT_THEORY = SGP/SGP4

EPOCH          = 2026-02-12T02:36:43.925472
MEAN_MOTION    = 15.80886349
ECCENTRICITY   = .0000872
INCLINATION    = 97.2841
RA_OF_ASC_NODE = 102.2915
ARG_OF_PERICENTER = 67.7144
MEAN_ANOMALY   = 292.4217

EPHEMERIS_TYPE = 0
CLASSIFICATION_TYPE = U
NORAD_CAT_ID   = 67569
ELEMENT_SET_NO = 999
REV_AT_EPOCH   = 277
BSTAR          = .93879E-3
MEAN_MOTION_DOT = .184116E-2
MEAN_MOTION_DDOT = 0

CCSDS_OMM_VERS = 2.0
CREATION_DATE  = 
ORIGINATOR     = 

OBJECT_NAME    = STARLINK-36562
OBJECT_ID      = 2026-016K
CENTER_NAME    = EARTH
REF_FRAME      = TEME
TIME_SYSTEM    = UTC
MEAN_ELEMENT_THEORY = SGP/SGP4

EPOCH          = 2026-02-12T04:06:34.568352
MEAN_MOTION    = 15.80841886
ECCENTRICITY   = .0001615
INCLINATION    = 97.2841
RA_OF_ASC_NODE = 102.3589
ARG_OF_PERICENTER = 71.9033
MEAN_ANOMALY   = 288.2411

EPHEMERIS_TYPE = 0
CLASSIFICATION_TYPE = U
NORAD_CAT_ID   = 67570
ELEMENT_SET_NO = 999
REV_AT_EPOCH   = 278
BSTAR          = .79196E-3
MEAN_MOTION_DOT = .154455E-2
MEAN_MOTION_DDOT = 0

CCSDS_OMM_VERS = 2.0
CREATION_DATE  = 
ORIGINATOR     = 

OBJECT_NAME    = STARLINK-36578
OBJECT_ID      = 2026-016L
CENTER_NAME    = EARTH
REF_FRAME      = TEME
TIME_SYSTEM    = UTC
MEAN_ELEMENT_THEORY = SGP/SGP4

EPOCH          = 2026-02-12T04:00:03.000096
MEAN_MOTION    = 15.75179534
ECCENTRICITY   = .0001328
INCLINATION    = 97.2840
RA_OF_ASC_NODE = 102.3338
ARG_OF_PERICENTER = 95.3189
MEAN_ANOMALY   = 188.7691

EPHEMERIS_TYPE = 0
CLASSIFICATION_TYPE = U
NORAD_CAT_ID   = 67571
ELEMENT_SET_NO = 999
REV_AT_EPOCH   = 392
BSTAR          = .59839E-4
MEAN_MOTION_DOT = .8801E-4
MEAN_MOTION_DDOT = 0

CCSDS_OMM_VERS = 2.0
CREATION_DATE  = 
ORIGINATOR     = 

OBJECT_NAME    = STARLINK-36350
OBJECT_ID      = 2026-016M
CENTER_NAME    = EARTH
REF_FRAME      = TEME
TIME_SYSTEM    = UTC
MEAN_ELEMENT_THEORY = SGP/SGP4

EPOCH          = 2026-02-12T04:00:03.000096
MEAN_MOTION    = 15.75199905
ECCENTRICITY   = .0001184
INCLINATION    = 97.2831
RA_OF_ASC_NODE = 102.3493
ARG_OF_PERICENTER = 70.0969
MEAN_ANOMALY   = 257.9844

EPHEMERIS_TYPE = 0
CLASSIFICATION_TYPE = U
NORAD_CAT_ID   = 67572
ELEMENT_SET_NO = 999
REV_AT_EPOCH   = 383
BSTAR          = -.31677E-3
MEAN_MOTION_DOT = -.47138E-3
MEAN_MOTION_DDOT = 0

CCSDS_OMM_VERS = 2.0
CREATION_DATE  = 
ORIGINATOR     = 

OBJECT_NAME    = STARLINK-36588
OBJECT_ID      = 2026-016N
CENTER_NAME    = EARTH
REF_FRAME      = TEME
TIME_SYSTEM    = UTC
MEAN_ELEMENT_THEORY = SGP/SGP4

EPOCH          = 2026-02-12T04:00:03.000096
MEAN_MOTION    = 15.75169856
ECCENTRICITY   = .0001454
INCLINATION    = 97.2863
RA_OF_ASC_NODE = 102.3459
ARG_OF_PERICENTER = 87.9110
MEAN_ANOMALY   = 228.1738

EPHEMERIS_TYPE = 0
CLASSIFICATION_TYPE = U
NORAD_CAT_ID   = 67573
ELEMENT_SET_NO = 999
REV_AT_EPOCH   = 399
BSTAR          = .13178E-3
MEAN_MOTION_DOT = .19554E-3
MEAN_MOTION_DDOT = 0

CCSDS_OMM_VERS = 2.0
CREATION_DATE  = 
ORIGINATOR     = 

OBJECT_NAME    = STARLINK-36594
OBJECT_ID      = 2026-016P
CENTER_NAME    = EARTH
REF_FRAME      = TEME
TIME_SYSTEM    = UTC
MEAN_ELEMENT_THEORY = SGP/SGP4

EPOCH          = 2026-02-12T03:59:47.411808
MEAN_MOTION    = 15.80899967
ECCENTRICITY   = .0001158
INCLINATION    = 97.2848
RA_OF_ASC_NODE = 102.3637
ARG_OF_PERICENTER = 61.2525
MEAN_ANOMALY   = 298.8859

EPHEMERIS_TYPE = 0
CLASSIFICATION_TYPE = U
NORAD_CAT_ID   = 67574
ELEMENT_SET_NO = 999
REV_AT_EPOCH   = 278
BSTAR          = .12465E-2
MEAN_MOTION_DOT = .246428E-2
MEAN_MOTION_DDOT = 0

